start=new Date('2022-04-02T00:00:00.000Z').valueOf();
sats=[{"MEAN_MOTION_DDOT":"0.0000000000000","SITE":"AFETR","GP_ID":"200262006","OBJECT_NAME":"STARLINK-1637","PERIAPSIS":"546.166","MEAN_MOTION_DOT":"0.00006110","RA_OF_ASC_NODE":"251.5368","EPOCH":"2022-04-01T19:12:57.245184","REV_AT_EPOCH":"9115","EPHEMERIS_TYPE":"0","ECCENTRICITY":"0.00014100","ARG_OF_PERICENTER":"57.5261","RCS_SIZE":"LARGE","ELEMENT_SET_NO":"999","DECAY_DATE":null,"REF_FRAME":"TEME","APOAPSIS":"548.119","BSTAR":"0.00042847000000","COUNTRY_CODE":"US","MEAN_ELEMENT_THEORY":"SGP4","INCLINATION":"53.0544","PERIOD":"95.591","OBJECT_TYPE":"PAYLOAD","FILE":"3383778","NORAD_CAT_ID":"46133","OBJECT_ID":"2020-057S","TLE_LINE2":"2 46133  53.0544 251.5368 0001410  57.5261 302.5864 15.06423146 91158","LAUNCH_DATE":"2020-08-18","TLE_LINE1":"1 46133U 20057S   22091.80066256  .00006110  00000-0  42847-3 0  9994","MEAN_MOTION":"15.06423146","CENTER_NAME":"EARTH","TIME_SYSTEM":"UTC","CLASSIFICATION_TYPE":"U","MEAN_ANOMALY":"302.5864","SEMIMAJOR_AXIS":"6925.278"},{"NORAD_CAT_ID":"46134","OBJECT_ID":"2020-057T","PERIOD":"95.592","FILE":"3383778","OBJECT_TYPE":"PAYLOAD","INCLINATION":"53.0521","COUNTRY_CODE":"US","BSTAR":"0.00024597000000","MEAN_ELEMENT_THEORY":"SGP4","SEMIMAJOR_AXIS":"6925.337","CLASSIFICATION_TYPE":"U","MEAN_ANOMALY":"291.1639","TLE_LINE1":"1 46134U 20057T   22091.73800828  .00003384  00000-0  24597-3 0  9990","LAUNCH_DATE":"2020-08-18","TIME_SYSTEM":"UTC","MEAN_MOTION":"15.06403618","CENTER_NAME":"EARTH","TLE_LINE2":"2 46134  53.0521 251.8232 0001480  68.9508 291.1639 15.06403618 89897","REV_AT_EPOCH":"8989","RA_OF_ASC_NODE":"251.8232","EPOCH":"2022-04-01T17:42:43.915392","ARG_OF_PERICENTER":"68.9508","EPHEMERIS_TYPE":"0","ECCENTRICITY":"0.00014800","MEAN_MOTION_DOT":"0.00003384","PERIAPSIS":"546.178","OBJECT_NAME":"STARLINK-1638","GP_ID":"200260762","MEAN_MOTION_DDOT":"0.0000000000000","SITE":"AFETR","APOAPSIS":"548.227","REF_FRAME":"TEME","ELEMENT_SET_NO":"999","RCS_SIZE":"LARGE","DECAY_DATE":null},{"MEAN_ANOMALY":"299.2007","CLASSIFICATION_TYPE":"U","SEMIMAJOR_AXIS":"6925.285","TLE_LINE2":"2 46135  53.0528 251.7652 0001231  60.9105 299.2007 15.06420822 89893","MEAN_MOTION":"15.06420822","CENTER_NAME":"EARTH","TIME_SYSTEM":"UTC","LAUNCH_DATE":"2020-08-18","TLE_LINE1":"1 46135U 20057U   22091.75274676  .00010202  00000-0  70240-3 0  9992","OBJECT_TYPE":"PAYLOAD","FILE":"3383778","PERIOD":"95.591","OBJECT_ID":"2020-057U","NORAD_CAT_ID":"46135","MEAN_ELEMENT_THEORY":"SGP4","COUNTRY_CODE":"US","BSTAR":"0.00070240000000","INCLINATION":"53.0528","REF_FRAME":"TEME","APOAPSIS":"548.002","DECAY_DATE":null,"RCS_SIZE":"LARGE","ELEMENT_SET_NO":"999","MEAN_MOTION_DOT":"0.00010202","PERIAPSIS":"546.297","ECCENTRICITY":"0.00012310","EPHEMERIS_TYPE":"0","ARG_OF_PERICENTER":"60.9105","EPOCH":"2022-04-01T18:03:57.320064","RA_OF_ASC_NODE":"251.7652","REV_AT_EPOCH":"8989","SITE":"AFETR","MEAN_MOTION_DDOT":"0.0000000000000","OBJECT_NAME":"STARLINK-1639","GP_ID":"200261512"},{"MEAN_ELEMENT_THEORY":"SGP4","BSTAR":"0.00033491000000","COUNTRY_CODE":"US","INCLINATION":"53.0530","FILE":"3383778","OBJECT_TYPE":"PAYLOAD","PERIOD":"95.592","NORAD_CAT_ID":"46136","OBJECT_ID":"2020-057V","TLE_LINE2":"2 46136  53.0530 281.5447 0001716  62.6657 297.4507 15.06406597 89482","TIME_SYSTEM":"UTC","MEAN_MOTION":"15.06406597","CENTER_NAME":"EARTH","TLE_LINE1":"1 46136U 20057V   22091.80160139  .00004711  00000-0  33491-3 0  9992","LAUNCH_DATE":"2020-08-18","MEAN_ANOMALY":"297.4507","CLASSIFICATION_TYPE":"U","SEMIMAJOR_AXIS":"6925.328","SITE":"AFETR","MEAN_MOTION_DDOT":"0.0000000000000","GP_ID":"200261764","OBJECT_NAME":"STARLINK-1643","PERIAPSIS":"546.005","MEAN_MOTION_DOT":"0.00004711","ARG_OF_PERICENTER":"62.6657","ECCENTRICITY":"0.00017160","EPHEMERIS_TYPE":"0","REV_AT_EPOCH":"8948","RA_OF_ASC_NODE":"281.5447","EPOCH":"2022-04-01T19:14:18.360096","DECAY_DATE":null,"ELEMENT_SET_NO":"999","RCS_SIZE":"LARGE","REF_FRAME":"TEME","APOAPSIS":"548.382"},{"SITE":"AFETR","MEAN_MOTION_DDOT":"0.0000000000000","GP_ID":"200262507","OBJECT_NAME":"STARLINK-1586","PERIAPSIS":"545.929","MEAN_MOTION_DOT":"0.00011524","ECCENTRICITY":"0.00017390","EPHEMERIS_TYPE":"0","ARG_OF_PERICENTER":"47.6592","RA_OF_ASC_NODE":"271.4603","EPOCH":"2022-04-01T19:42:09.234144","REV_AT_EPOCH":"8962","DECAY_DATE":null,"RCS_SIZE":"LARGE","ELEMENT_SET_NO":"999","REF_FRAME":"TEME","APOAPSIS":"548.338","MEAN_ELEMENT_THEORY":"SGP4","COUNTRY_CODE":"US","BSTAR":"0.00079070000000","INCLINATION":"53.0546","OBJECT_TYPE":"PAYLOAD","FILE":"3383778","PERIOD":"95.590","OBJECT_ID":"2020-057W","NORAD_CAT_ID":"46137","TLE_LINE2":"2 46137  53.0546 271.4603 0001739  47.6592 312.4544 15.06426052 89621","MEAN_MOTION":"15.06426052","CENTER_NAME":"EARTH","TIME_SYSTEM":"UTC","LAUNCH_DATE":"2020-08-18","TLE_LINE1":"1 46137U 20057W   22091.82094021  .00011524  00000-0  79070-3 0  9994","MEAN_ANOMALY":"312.4544","CLASSIFICATION_TYPE":"U","SEMIMAJOR_AXIS":"6925.269"},{"SITE":"AFETR","MEAN_MOTION_DDOT":"0.0000000000000","GP_ID":"200233948","OBJECT_NAME":"STARLINK-1590","PERIAPSIS":"545.988","MEAN_MOTION_DOT":"0.00002073","ARG_OF_PERICENTER":"53.6636","ECCENTRICITY":"0.00017330","EPHEMERIS_TYPE":"0","REV_AT_EPOCH":"9000","RA_OF_ASC_NODE":"291.4672","EPOCH":"2022-04-01T19:39:29.826144","DECAY_DATE":null,"ELEMENT_SET_NO":"999","RCS_SIZE":"LARGE","REF_FRAME":"TEME","APOAPSIS":"548.388","MEAN_ELEMENT_THEORY":"SGP4","COUNTRY_CODE":"US","BSTAR":"0.00015801000000","INCLINATION":"53.0541","FILE":"3383378","OBJECT_TYPE":"PAYLOAD","PERIOD":"95.592","NORAD_CAT_ID":"46138","OBJECT_ID":"2020-057X","TLE_LINE2":"2 46138  53.0541 291.4672 0001733  53.6636 306.4512 15.06408260 90008","TIME_SYSTEM":"UTC","MEAN_MOTION":"15.06408260","CENTER_NAME":"EARTH","TLE_LINE1":"1 46138U 20057X   22091.81909521  .00002073  00000-0  15801-3 0  9995","LAUNCH_DATE":"2020-08-18","MEAN_ANOMALY":"306.4512","CLASSIFICATION_TYPE":"U","SEMIMAJOR_AXIS":"6925.323"},{"REF_FRAME":"TEME","APOAPSIS":"548.414","ELEMENT_SET_NO":"999","RCS_SIZE":"LARGE","DECAY_DATE":null,"PERIAPSIS":"545.911","MEAN_MOTION_DOT":"0.00005505","REV_AT_EPOCH":"9117","EPOCH":"2022-04-01T20:16:38.790624","RA_OF_ASC_NODE":"251.3477","ARG_OF_PERICENTER":"47.8539","ECCENTRICITY":"0.00018070","EPHEMERIS_TYPE":"0","MEAN_MOTION_DDOT":"0.0000000000000","SITE":"AFETR","GP_ID":"200261012","OBJECT_NAME":"STARLINK-1594","CLASSIFICATION_TYPE":"U","MEAN_ANOMALY":"312.2603","SEMIMAJOR_AXIS":"6925.298","TLE_LINE2":"2 46140  53.0528 251.3477 0001807  47.8539 312.2603 15.06416568 91178","TLE_LINE1":"1 46140U 20057Z   22091.84489341  .00005505  00000-0  38800-3 0  9991","LAUNCH_DATE":"2020-08-18","TIME_SYSTEM":"UTC","MEAN_MOTION":"15.06416568","CENTER_NAME":"EARTH","PERIOD":"95.591","FILE":"3383778","OBJECT_TYPE":"PAYLOAD","NORAD_CAT_ID":"46140","OBJECT_ID":"2020-057Z","BSTAR":"0.00038800000000","COUNTRY_CODE":"US","MEAN_ELEMENT_THEORY":"SGP4","INCLINATION":"53.0528"},{"DECAY_DATE":null,"ELEMENT_SET_NO":"999","RCS_SIZE":"LARGE","APOAPSIS":"548.112","REF_FRAME":"TEME","OBJECT_NAME":"STARLINK-1596","GP_ID":"200262265","SITE":"AFETR","MEAN_MOTION_DDOT":"0.0000000000000","ARG_OF_PERICENTER":"53.0113","ECCENTRICITY":"0.00013480","EPHEMERIS_TYPE":"0","REV_AT_EPOCH":"8990","EPOCH":"2022-04-01T19:44:48.197184","RA_OF_ASC_NODE":"251.4467","MEAN_MOTION_DOT":"0.00002941","PERIAPSIS":"546.245","TIME_SYSTEM":"UTC","MEAN_MOTION":"15.06411321","CENTER_NAME":"EARTH","TLE_LINE1":"1 46141U 20057AA  22091.82278006  .00002941  00000-0  21616-3 0  9992","LAUNCH_DATE":"2020-08-18","TLE_LINE2":"2 46141  53.0533 251.4467 0001348  53.0113 307.0999 15.06411321 89902","SEMIMAJOR_AXIS":"6925.314","MEAN_ANOMALY":"307.0999","CLASSIFICATION_TYPE":"U","INCLINATION":"53.0533","MEAN_ELEMENT_THEORY":"SGP4","BSTAR":"0.00021616000000","COUNTRY_CODE":"US","OBJECT_ID":"2020-057AA","NORAD_CAT_ID":"46141","FILE":"3383778","OBJECT_TYPE":"PAYLOAD","PERIOD":"95.591"},{"REF_FRAME":"TEME","APOAPSIS":"548.384","ELEMENT_SET_NO":"999","RCS_SIZE":"LARGE","DECAY_DATE":null,"MEAN_MOTION_DOT":"0.00005664","PERIAPSIS":"545.968","REV_AT_EPOCH":"9000","EPOCH":"2022-04-01T20:11:20.758272","RA_OF_ASC_NODE":"291.3751","ARG_OF_PERICENTER":"71.1807","ECCENTRICITY":"0.00017450","EPHEMERIS_TYPE":"0","MEAN_MOTION_DDOT":"0.0000000000000","SITE":"AFETR","GP_ID":"200234058","OBJECT_NAME":"STARLINK-1597","CLASSIFICATION_TYPE":"U","MEAN_ANOMALY":"288.9371","SEMIMAJOR_AXIS":"6925.311","TLE_LINE2":"2 46142  53.0535 291.3751 0001745  71.1807 288.9371 15.06412253 90005","TLE_LINE1":"1 46142U 20057AB  22091.84121248  .00005664  00000-0  39873-3 0  9999","LAUNCH_DATE":"2020-08-18","TIME_SYSTEM":"UTC","CENTER_NAME":"EARTH","MEAN_MOTION":"15.06412253","PERIOD":"95.591","FILE":"3383386","OBJECT_TYPE":"PAYLOAD","NORAD_CAT_ID":"46142","OBJECT_ID":"2020-057AB","BSTAR":"0.00039873000000","COUNTRY_CODE":"US","MEAN_ELEMENT_THEORY":"SGP4","INCLINATION":"53.0535"},{"SEMIMAJOR_AXIS":"6925.334","MEAN_ANOMALY":"285.9770","CLASSIFICATION_TYPE":"U","MEAN_MOTION":"15.06404900","CENTER_NAME":"EARTH","TIME_SYSTEM":"UTC","LAUNCH_DATE":"2020-08-18","TLE_LINE1":"1 46144U 20057AD  22091.80620293  .00009134  00000-0  63119-3 0  9997","TLE_LINE2":"2 46144  53.0532 271.5344 0001463  74.1380 285.9770 15.06404900 90299","OBJECT_ID":"2020-057AD","NORAD_CAT_ID":"46144","OBJECT_TYPE":"PAYLOAD","FILE":"3383389","PERIOD":"95.592","INCLINATION":"53.0532","MEAN_ELEMENT_THEORY":"SGP4","BSTAR":"0.00063119000000","COUNTRY_CODE":"US","APOAPSIS":"548.212","REF_FRAME":"TEME","DECAY_DATE":null,"RCS_SIZE":"LARGE","ELEMENT_SET_NO":"999","ECCENTRICITY":"0.00014630","EPHEMERIS_TYPE":"0","ARG_OF_PERICENTER":"74.1380","RA_OF_ASC_NODE":"271.5344","EPOCH":"2022-04-01T19:20:55.933152","REV_AT_EPOCH":"9029","MEAN_MOTION_DOT":"0.00009134","PERIAPSIS":"546.185","GP_ID":"200234095","OBJECT_NAME":"STARLINK-1606","SITE":"AFETR","MEAN_MOTION_DDOT":"0.0000000000000"}];
